[{"OBJECT_NAME":"STARLINK-35251","OBJECT_ID":"2025-207N","EPOCH":"2026-03-09T17:00:44.164800","MEAN_MOTION":15.05646349,"ECCENTRICITY":6.199e-5,"INCLINATION":97.6027,"RA_OF_ASC_NODE":138.6721,"ARG_OF_PERICENTER":99.1283,"MEAN_ANOMALY":261.0014,"EPHEMERIS_TYPE":0,"CLASSIFICATION_TYPE":"U","NORAD_CAT_ID":65604,"ELEMENT_SET_NO":999,"REV_AT_EPOCH":2826,"BSTAR":0.00032686355,"MEAN_MOTION_DOT":4.658e-5,"MEAN_MOTION_DDOT":0},{"OBJECT_NAME":"SL-8 DEB","OBJECT_ID":"1976-098E","EPOCH":"2026-03-09T08:07:12.416160","MEAN_MOTION":15.06605169,"ECCENTRICITY":0.00102283,"INCLINATION":74.028,"RA_OF_ASC_NODE":26.283,"ARG_OF_PERICENTER":218.296,"MEAN_ANOMALY":294.2383,"EPHEMERIS_TYPE":0,"CLASSIFICATION_TYPE":"U","NORAD_CAT_ID":18504,"ELEMENT_SET_NO":999,"REV_AT_EPOCH":18055,"BSTAR":0.0011587434,"MEAN_MOTION_DOT":0.00017191,"MEAN_MOTION_DDOT":0}]
